FENGYUN 1C DEB          
1 38829U 99025EVV 17345.30254242  .00000475  00000-0  32262-3 0  9991
2 38829  99.0341  15.7735 0042173 296.5859  63.0989 14.04610051230537
